[
  {
    "COMMENT": "GENERATED VIA SPACETRACK.ORG API",
    "ORIGINATOR": "18 SPCS",
    "NORAD_CAT_ID": "20436",
    "OBJECT_NAME": "SPOT 2",
    "OBJECT_TYPE": "PAYLOAD",
    "CLASSIFICATION_TYPE": "U",
    "INTLDES": "90005A",
    "EPOCH": "2023-05-13 08:51:08",
    "EPOCH_MICROSECONDS": "633088",
    "MEAN_MOTION": "14.6803109",
    "ECCENTRICITY": "0.0142078",
    "INCLINATION": "98.6637",
    "RA_OF_ASC_NODE": "202.6275",
    "ARG_OF_PERICENTER": "32.7985",
    "MEAN_ANOMALY": "328.1939",
    "EPHEMERIS_TYPE": "0",
    "ELEMENT_SET_NO": "999",
    "REV_AT_EPOCH": "74906",
    "BSTAR": "0.00031175",
    "MEAN_MOTION_DOT": "0.0000202",
    "MEAN_MOTION_DDOT": "0",
    "FILE": "3906915",
    "TLE_LINE0": "0 SPOT 2",
    "TLE_LINE1": "1 20436U 90005A   23133.36884992  .00002020  00000-0  31175-3 0  9994",
    "TLE_LINE2": "2 20436  98.6637 202.6275 0142078  32.7985 328.1939 14.68031090749069",
    "OBJECT_ID": "1990-005A",
    "OBJECT_NUMBER": "20436",
    "SEMIMAJOR_AXIS": "7045.498",
    "PERIOD": "98.091",
    "APOGEE": "767.464",
    "PERIGEE": "567.262",
    "DECAYED": "0"
  },
  {
    "COMMENT": "GENERATED VIA SPACETRACK.ORG API",
    "ORIGINATOR": "18 SPCS",
    "NORAD_CAT_ID": "20436",
    "OBJECT_NAME": "SPOT 2",
    "OBJECT_TYPE": "PAYLOAD",
    "CLASSIFICATION_TYPE": "U",
    "INTLDES": "90005A",
    "EPOCH": "2023-05-13 21:56:19",
    "EPOCH_MICROSECONDS": "191264",
    "MEAN_MOTION": "14.68032758",
    "ECCENTRICITY": "0.0142029",
    "INCLINATION": "98.6636",
    "RA_OF_ASC_NODE": "203.2047",
    "ARG_OF_PERICENTER": "31.1024",
    "MEAN_ANOMALY": "329.849",
    "EPHEMERIS_TYPE": "0",
    "ELEMENT_SET_NO": "999",
    "REV_AT_EPOCH": "74914",
    "BSTAR": "0.00027974",
    "MEAN_MOTION_DOT": "0.00001805",
    "MEAN_MOTION_DDOT": "0",
    "FILE": "3907148",
    "TLE_LINE0": "0 SPOT 2",
    "TLE_LINE1": "1 20436U 90005A   23133.91411101  .00001805  00000-0  27974-3 0  9995",
    "TLE_LINE2": "2 20436  98.6636 203.2047 0142029  31.1024 329.8490 14.68032758749146",
    "OBJECT_ID": "1990-005A",
    "OBJECT_NUMBER": "20436",
    "SEMIMAJOR_AXIS": "7045.492",
    "PERIOD": "98.090",
    "APOGEE": "767.424",
    "PERIGEE": "567.291",
    "DECAYED": "0"
  },
  {
    "COMMENT": "GENERATED VIA SPACETRACK.ORG API",
    "ORIGINATOR": "18 SPCS",
    "NORAD_CAT_ID": "20436",
    "OBJECT_NAME": "SPOT 2",
    "OBJECT_TYPE": "PAYLOAD",
    "CLASSIFICATION_TYPE": "U",
    "INTLDES": "90005A",
    "EPOCH": "2023-05-14 04:28:54",
    "EPOCH_MICROSECONDS": "434496",
    "MEAN_MOTION": "14.68034177",
    "ECCENTRICITY": "0.0142007",
    "INCLINATION": "98.6637",
    "RA_OF_ASC_NODE": "203.4933",
    "ARG_OF_PERICENTER": "30.254",
    "MEAN_ANOMALY": "330.6766",
    "EPHEMERIS_TYPE": "0",
    "ELEMENT_SET_NO": "999",
    "REV_AT_EPOCH": "74920",
    "BSTAR": "0.00028877",
    "MEAN_MOTION_DOT": "0.00001866",
    "MEAN_MOTION_DDOT": "0",
    "FILE": "3907414",
    "TLE_LINE0": "0 SPOT 2",
    "TLE_LINE1": "1 20436U 90005A   23134.18674114  .00001866  00000-0  28877-3 0  9990",
    "TLE_LINE2": "2 20436  98.6637 203.4933 0142007  30.2540 330.6766 14.68034177749202",
    "OBJECT_ID": "1990-005A",
    "OBJECT_NUMBER": "20436",
    "SEMIMAJOR_AXIS": "7045.488",
    "PERIOD": "98.090",
    "APOGEE": "767.404",
    "PERIGEE": "567.302",
    "DECAYED": "0"
  },
  {
    "COMMENT": "GENERATED VIA SPACETRACK.ORG API",
    "ORIGINATOR": "18 SPCS",
    "NORAD_CAT_ID": "20436",
    "OBJECT_NAME": "SPOT 2",
    "OBJECT_TYPE": "PAYLOAD",
    "CLASSIFICATION_TYPE": "U",
    "INTLDES": "90005A",
    "EPOCH": "2023-05-14 04:28:54",
    "EPOCH_MICROSECONDS": "434496",
    "MEAN_MOTION": "14.68034177",
    "ECCENTRICITY": "0.0142007",
    "INCLINATION": "98.6637",
    "RA_OF_ASC_NODE": "203.4933",
    "ARG_OF_PERICENTER": "30.254",
    "MEAN_ANOMALY": "330.6766",
    "EPHEMERIS_TYPE": "0",
    "ELEMENT_SET_NO": "999",
    "REV_AT_EPOCH": "74918",
    "BSTAR": "0.00028877",
    "MEAN_MOTION_DOT": "0.00001866",
    "MEAN_MOTION_DDOT": "0",
    "FILE": "3907744",
    "TLE_LINE0": "0 SPOT 2",
    "TLE_LINE1": "1 20436U 90005A   23134.18674114  .00001866  00000-0  28877-3 0  9990",
    "TLE_LINE2": "2 20436  98.6637 203.4933 0142007  30.2540 330.6766 14.68034177749189",
    "OBJECT_ID": "1990-005A",
    "OBJECT_NUMBER": "20436",
    "SEMIMAJOR_AXIS": "7045.488",
    "PERIOD": "98.090",
    "APOGEE": "767.404",
    "PERIGEE": "567.302",
    "DECAYED": "0"
  },
  {
    "COMMENT": "GENERATED VIA SPACETRACK.ORG API",
    "ORIGINATOR": "18 SPCS",
    "NORAD_CAT_ID": "20436",
    "OBJECT_NAME": "SPOT 2",
    "OBJECT_TYPE": "PAYLOAD",
    "CLASSIFICATION_TYPE": "U",
    "INTLDES": "90005A",
    "EPOCH": "2023-05-14 19:12:13",
    "EPOCH_MICROSECONDS": "686624",
    "MEAN_MOTION": "14.680359",
    "ECCENTRICITY": "0.0141968",
    "INCLINATION": "98.6637",
    "RA_OF_ASC_NODE": "204.1426",
    "ARG_OF_PERICENTER": "28.3503",
    "MEAN_ANOMALY": "332.5333",
    "EPHEMERIS_TYPE": "0",
    "ELEMENT_SET_NO": "999",
    "REV_AT_EPOCH": "74927",
    "BSTAR": "0.00025238",
    "MEAN_MOTION_DOT": "0.00001622",
    "MEAN_MOTION_DDOT": "0",
    "FILE": "3908005",
    "TLE_LINE0": "0 SPOT 2",
    "TLE_LINE1": "1 20436U 90005A   23134.80015841  .00001622  00000-0  25238-3 0  9993",
    "TLE_LINE2": "2 20436  98.6637 204.1426 0141968  28.3503 332.5333 14.68035900749272",
    "OBJECT_ID": "1990-005A",
    "OBJECT_NUMBER": "20436",
    "SEMIMAJOR_AXIS": "7045.482",
    "PERIOD": "98.090",
    "APOGEE": "767.371",
    "PERIGEE": "567.324",
    "DECAYED": "0"
  },
  {
    "COMMENT": "GENERATED VIA SPACETRACK.ORG API",
    "ORIGINATOR": "18 SPCS",
    "NORAD_CAT_ID": "20436",
    "OBJECT_NAME": "SPOT 2",
    "OBJECT_TYPE": "PAYLOAD",
    "CLASSIFICATION_TYPE": "U",
    "INTLDES": "90005A",
    "EPOCH": "2023-05-15 05:01:06",
    "EPOCH_MICROSECONDS": "505248",
    "MEAN_MOTION": "14.68037041",
    "ECCENTRICITY": "0.0141958",
    "INCLINATION": "98.6637",
    "RA_OF_ASC_NODE": "204.5755",
    "ARG_OF_PERICENTER": "27.092",
    "MEAN_ANOMALY": "333.76",
    "EPHEMERIS_TYPE": "0",
    "ELEMENT_SET_NO": "999",
    "REV_AT_EPOCH": "74935",
    "BSTAR": "0.00023965",
    "MEAN_MOTION_DOT": "0.00001537",
    "MEAN_MOTION_DDOT": "0",
    "FILE": "3908245",
    "TLE_LINE0": "0 SPOT 2",
    "TLE_LINE1": "1 20436U 90005A   23135.20910307  .00001537  00000-0  23965-3 0  9999",
    "TLE_LINE2": "2 20436  98.6637 204.5755 0141958  27.0920 333.7600 14.68037041749356",
    "OBJECT_ID": "1990-005A",
    "OBJECT_NUMBER": "20436",
    "SEMIMAJOR_AXIS": "7045.479",
    "PERIOD": "98.090",
    "APOGEE": "767.360",
    "PERIGEE": "567.327",
    "DECAYED": "0"
  },
  {
    "COMMENT": "GENERATED VIA SPACETRACK.ORG API",
    "ORIGINATOR": "18 SPCS",
    "NORAD_CAT_ID": "20436",
    "OBJECT_NAME": "SPOT 2",
    "OBJECT_TYPE": "PAYLOAD",
    "CLASSIFICATION_TYPE": "U",
    "INTLDES": "90005A",
    "EPOCH": "2023-05-15 05:01:06",
    "EPOCH_MICROSECONDS": "505248",
    "MEAN_MOTION": "14.68037041",
    "ECCENTRICITY": "0.0141958",
    "INCLINATION": "98.6637",
    "RA_OF_ASC_NODE": "204.5755",
    "ARG_OF_PERICENTER": "27.092",
    "MEAN_ANOMALY": "333.76",
    "EPHEMERIS_TYPE": "0",
    "ELEMENT_SET_NO": "999",
    "REV_AT_EPOCH": "74933",
    "BSTAR": "0.00023965",
    "MEAN_MOTION_DOT": "0.00001537",
    "MEAN_MOTION_DDOT": "0",
    "FILE": "3908681",
    "TLE_LINE0": "0 SPOT 2",
    "TLE_LINE1": "1 20436U 90005A   23135.20910307  .00001537  00000-0  23965-3 0  9999",
    "TLE_LINE2": "2 20436  98.6637 204.5755 0141958  27.0920 333.7600 14.68037041749334",
    "OBJECT_ID": "1990-005A",
    "OBJECT_NUMBER": "20436",
    "SEMIMAJOR_AXIS": "7045.479",
    "PERIOD": "98.090",
    "APOGEE": "767.360",
    "PERIGEE": "567.327",
    "DECAYED": "0"
  },
  {
    "COMMENT": "GENERATED VIA SPACETRACK.ORG API",
    "ORIGINATOR": "18 SPCS",
    "NORAD_CAT_ID": "20436",
    "OBJECT_NAME": "SPOT 2",
    "OBJECT_TYPE": "PAYLOAD",
    "CLASSIFICATION_TYPE": "U",
    "INTLDES": "90005A",
    "EPOCH": "2023-05-15 16:28:08",
    "EPOCH_MICROSECONDS": "82624",
    "MEAN_MOTION": "14.68037604",
    "ECCENTRICITY": "0.0141941",
    "INCLINATION": "98.6639",
    "RA_OF_ASC_NODE": "205.0804",
    "ARG_OF_PERICENTER": "25.5991",
    "MEAN_ANOMALY": "335.2151",
    "EPHEMERIS_TYPE": "0",
    "ELEMENT_SET_NO": "999",
    "REV_AT_EPOCH": "74940",
    "BSTAR": "0.00023545",
    "MEAN_MOTION_DOT": "0.00001509",
    "MEAN_MOTION_DDOT": "0",
    "FILE": "3908892",
    "TLE_LINE0": "0 SPOT 2",
    "TLE_LINE1": "1 20436U 90005A   23135.68620466  .00001509  00000-0  23545-3 0  9998",
    "TLE_LINE2": "2 20436  98.6639 205.0804 0141941  25.5991 335.2151 14.68037604749401",
    "OBJECT_ID": "1990-005A",
    "OBJECT_NUMBER": "20436",
    "SEMIMAJOR_AXIS": "7045.477",
    "PERIOD": "98.090",
    "APOGEE": "767.346",
    "PERIGEE": "567.338",
    "DECAYED": "0"
  },
  {
    "COMMENT": "GENERATED VIA SPACETRACK.ORG API",
    "ORIGINATOR": "18 SPCS",
    "NORAD_CAT_ID": "20436",
    "OBJECT_NAME": "SPOT 2",
    "OBJECT_TYPE": "PAYLOAD",
    "CLASSIFICATION_TYPE": "U",
    "INTLDES": "90005A",
    "EPOCH": "2023-05-16 10:27:44",
    "EPOCH_MICROSECONDS": "726976",
    "MEAN_MOTION": "14.68039646",
    "ECCENTRICITY": "0.0141888",
    "INCLINATION": "98.6639",
    "RA_OF_ASC_NODE": "205.8741",
    "ARG_OF_PERICENTER": "23.2652",
    "MEAN_ANOMALY": "337.4889",
    "EPHEMERIS_TYPE": "0",
    "ELEMENT_SET_NO": "999",
    "REV_AT_EPOCH": "74953",
    "BSTAR": "0.00021763",
    "MEAN_MOTION_DOT": "0.00001389",
    "MEAN_MOTION_DDOT": "0",
    "FILE": "3909369",
    "TLE_LINE0": "0 SPOT 2",
    "TLE_LINE1": "1 20436U 90005A   23136.43593434  .00001389  00000-0  21763-3 0  9992",
    "TLE_LINE2": "2 20436  98.6639 205.8741 0141888  23.2652 337.4889 14.68039646749532",
    "OBJECT_ID": "1990-005A",
    "OBJECT_NUMBER": "20436",
    "SEMIMAJOR_AXIS": "7045.470",
    "PERIOD": "98.090",
    "APOGEE": "767.302",
    "PERIGEE": "567.368",
    "DECAYED": "0"
  }
]